COMMENT,ORIGINATOR,NORAD_CAT_ID,OBJECT_NAME,OBJECT_TYPE,CLASSIFICATION_TYPE,INTLDES,EPOCH,EPOCH_MICROSECONDS,MEAN_MOTION,ECCENTRICITY,INCLINATION,RA_OF_ASC_NODE,ARG_OF_PERICENTER,MEAN_ANOMALY,EPHEMERIS_TYPE,ELEMENT_SET_NO,REV_AT_EPOCH,BSTAR,MEAN_MOTION_DOT,MEAN_MOTION_DDOT,FILE,TLE_LINE0,TLE_LINE1,TLE_LINE2,OBJECT_ID,OBJECT_NUMBER,SEMIMAJOR_AXIS,PERIOD,APOGEE,PERIGEE
"GENERATED VIA SPACETRACK.ORG API","JSPOC","33438","BREEZE-M R/B","ROCKET BODY","U","08057C","2016-01-14 22:58:09","653952","1.99998156","0.5836188","21.1489","336.3116","338.5946","4.5387","0","999","5252","0","-4.33e-06","0","1980573","0 BREEZE-M R/B","1 33438U 08057C   16014.95705618 -.00000433  00000-0  00000+0 0  9994","2 33438  21.1489 336.3116 5836188 338.5946   4.5387  1.99998156 52526","2008-057C","33438","26610.386","720.006","35762.573","4701.929"
"GENERATED VIA SPACETRACK.ORG API","JSPOC","40876","ARIANE 5 R/B","ROCKET BODY","U","15039C","2016-01-14 22:59:15","806112","2.28688502","0.7274156","5.4831","42.0433","300.6112","7.3972","0","999","336","0.00082091","2.576e-05","0","1980707","0 ARIANE 5 R/B","1 40876U 15039C   16014.95782183 +.00002576 +00000-0 +82091-3 0  9991","2 40876 005.4831 042.0433 7274156 300.6112 007.3972 02.28688502003360","2015-039C","40876","24335.426","629.677","35659.259","255.322"
"GENERATED VIA SPACETRACK.ORG API","JSPOC","16962","COSMOS 1779 (GLONASS)","PAYLOAD","U","86071B","2016-01-14 22:59:18","153600","2.13102959","0.0008655","64.1073","203.1794","38.3732","165.2922","0","999","22813","0","9.9e-07","0","1980707","0 COSMOS 1779 (GLONASS)","1 16962U 86071B   16014.95784900 +.00000099 +00000-0 +00000-0 0  9998","2 16962 064.1073 203.1794 0008655 038.3732 165.2922 02.13102959228138","1986-071B","16962","25507.947","675.729","19151.890","19107.735"
"GENERATED VIA SPACETRACK.ORG API","JSPOC","26900","INTELSAT 902","PAYLOAD","U","01039A","2016-01-14 22:59:26","492064","1.00271309","0.000292","0.033","80.4798","216.992","223.2166","0","999","5260","0","2.8e-07","0","1980518","0 INTELSAT 902","1 26900U 01039A   16014.95794551  .00000028  00000-0  00000+0 0  9996","2 26900   0.0330  80.4798 0002920 216.9920 223.2166  1.00271309 52601","2001-039A","26900","42164.865","1436.103","35799.042","35774.418"
"GENERATED VIA SPACETRACK.ORG API","JSPOC","27516","DRTS","PAYLOAD","U","02042B","2016-01-14 23:00:08","518752","1.00271255","0.0003019","4.0931","65.2036","249.0206","235.3976","0","999","774","0","-2.45e-06","0","1980707","0 DRTS","1 27516U 02042B   16014.95843193 -.00000245 +00000-0 +00000-0 0  9995","2 27516 004.0931 065.2036 0003019 249.0206 235.3976 01.00271255007744","2002-042B","27516","42164.880","1436.104","35799.475","35774.015"
"GENERATED VIA SPACETRACK.ORG API","JSPOC","25626","GALAXY 26 (TELSTAR 6)","PAYLOAD","U","99005A","2016-01-14 23:01:41","733984","0.98997152","0.0002648","3.7226","79.2873","151.5155","344.3493","0","999","6189","0","-1.86e-06","0","1980452","0 GALAXY 26 (TELSTAR 6)","1 25626U 99005A   16014.95951081 -.00000186  00000-0  00000+0 0  9999","2 25626   3.7226  79.2873 0002648 151.5155 344.3493  0.98997152 61896","1999-005A","25626","42525.886","1454.587","36159.012","36136.490"
"GENERATED VIA SPACETRACK.ORG API","JSPOC","36745","ARABSAT 5A","PAYLOAD","U","10032B","2016-01-14 23:02:16","819296","1.00275023","0.0003213","0.0526","354.826","291.8655","203.2201","0","999","2049","0","1.48e-06","0","1980707","0 ARABSAT 5A","1 36745U 10032B   16014.95991689 +.00000148 +00000-0 +00000-0 0  9992","2 36745 000.0526 354.8260 0003213 291.8655 203.2201 01.00275023020498","2010-032B","36745","42163.824","1436.050","35799.236","35772.142"
"GENERATED VIA SPACETRACK.ORG API","JSPOC","6126","LANDSAT 1 (ERTS 1)","PAYLOAD","U","72058A","2016-01-14 23:03:05","211072","13.97500139","0.0007365","98.9916","331.4582","207.1757","152.9022","0","999","21650","4.9125e-05","2.6e-07","0","1980474","0 LANDSAT 1 (ERTS 1)","1 06126U 72058A   16014.96047698  .00000026  00000-0  49125-4 0  9991","2 06126  98.9916 331.4582 0007365 207.1757 152.9022 13.97500139216508","1972-058A","6126","7280.601","103.041","907.828","897.104"
"GENERATED VIA SPACETRACK.ORG API","JSPOC","14160","GORIZONT 7","PAYLOAD","U","83066A","2016-01-14 23:03:13","837248","0.98346656","0.0014367","15.1843","347.2095","245.5333","328.5331","0","999","11735","0","-7.6e-07","0","1980416","0 GORIZONT 7","1 14160U 83066A   16014.96057682 -.00000076  00000-0  00000+0 0  9993","2 14160  15.1843 347.2095 0014367 245.5333 328.5331  0.98346656117351","1983-066A","14160","42713.200","1464.208","36396.431","36273.698"
"GENERATED VIA SPACETRACK.ORG API","JSPOC","26610","STRV 1C","PAYLOAD","U","00072C","2016-01-14 23:04:35","592384","2.03491882","0.7333245","6.1899","201.7242","202.8545","90.7097","0","999","11258","0.0027159","-2.08e-06","0","1980707","0 STRV 1C","1 26610U 00072C   16014.96152306 -.00000208 +00000-0 +27159-2 0  9995","2 26610 006.1899 201.7242 7333245 202.8545 090.7097 02.03491882112587","2000-072C","26610","26304.927","707.644","39216.840","636.744"
"GENERATED VIA SPACETRACK.ORG API","JSPOC","25465","SL-12 R/B(2)","ROCKET BODY","U","98050D","2016-01-14 23:05:03","203232","1.82825863","0.4974147","14.6437","94.0732","90.0534","346.7749","0","999","11607","0","-6.3e-07","0","1980409","0 SL-12 R/B(2)","1 25465U 98050D   16014.96184263 -.00000063  00000-0  00000+0 0  9994","2 25465  14.6437  94.0732 4974147  90.0534 346.7749  1.82825863116079","1998-050D","25465","28251.624","787.634","35926.262","7820.715"
"GENERATED VIA SPACETRACK.ORG API","JSPOC","16007","ASC 1 R/B(PAM-D)","ROCKET BODY","U","85076G","2016-01-14 23:06:08","299584","2.3531093","0.7153788","26.4776","225.0881","303.9721","7.4228","0","999","25658","0.00014819","7.1e-07","0","1980707","0 ASC 1 R/B(PAM-D)","1 16007U 85076G   16014.96259606 +.00000071 +00000-0 +14819-3 0  9999","2 16007 026.4776 225.0881 7153788 303.9721 007.4228 02.35310930256583","1985-076G","16007","23876.670","611.956","34579.400","417.671"
"GENERATED VIA SPACETRACK.ORG API","JSPOC","11568","SL-12 R/B(2)","ROCKET BODY","U","75123F","2016-01-14 23:06:42","799104","1.00500964","0.0012269","11.0859","317.514","106.5854","72.5857","0","999","8374","0","1.33e-06","0","1980707","0 SL-12 R/B(2)","1 11568U 75123F   16014.96299536 +.00000133 +00000-0 +00000-0 0  9997","2 11568 011.0859 317.5140 0012269 106.5854 072.5857 01.00500964083748","1975-123F","11568","42100.606","1432.822","35774.125","35670.818"
"GENERATED VIA SPACETRACK.ORG API","JSPOC","28659","DIRECTV 8","PAYLOAD","U","05019A","2016-01-14 23:07:51","672864","1.00271576","0.0003373","0.0145","53.2125","243.935","62.8045","0","999","3898","0","-1.2e-06","0","1980707","0 DIRECTV 8","1 28659U 05019A   16014.96379251 -.00000120 +00000-0 +00000-0 0  9993","2 28659 000.0145 053.2125 0003373 243.9350 062.8045 01.00271576038984","2005-019A","28659","42164.790","1436.099","35800.877","35772.433"
"GENERATED VIA SPACETRACK.ORG API","JSPOC","17590","SL-16 R/B","ROCKET BODY","U","87027B","2016-01-14 23:08:26","359872","14.16713739","0.0004955","71.0019","163.3011","348.6392","11.4618","0","999","49058","-2.8976e-05","-1.06e-06","0","1980426","0 SL-16 R/B","1 17590U 87027B   16014.96419398 -.00000106  00000-0 -28976-4 0  9992","2 17590  71.0019 163.3011 0004955 348.6392  11.4618 14.16713739490584","1987-027B","17590","7214.625","101.643","840.064","832.915"
"GENERATED VIA SPACETRACK.ORG API","JSPOC","8294","SL-3 R/B","ROCKET BODY","U","75087B","2016-01-14 23:08:29","142816","14.08526214","0.0107481","81.2082","168.5563","66.558","294.6846","0","999","7175","0.00012174","2.34e-06","0","1980484","0 SL-3 R/B","1 08294U 75087B   16014.96422619  .00000234  00000-0  12174-3 0  9998","2 08294  81.2082 168.5563 0107481  66.5580 294.6846 14.08526214 71753","1975-087B","8294","7242.556","102.234","942.265","786.577"
"GENERATED VIA SPACETRACK.ORG API","JSPOC","18122","COSMOS 1860","PAYLOAD","U","87052A","2016-01-14 23:08:32","731008","13.84794848","0.0045875","65.0087","176.4011","2.8454","143.6886","0","999","44593","1.4521e-05","-7.2e-07","0","1980418","0 COSMOS 1860","1 18122U 87052A   16014.96426772 -.00000072  00000-0  14521-4 0  9998","2 18122  65.0087 176.4011 0045875   2.8454 143.6886 13.84794848445931","1987-052A","18122","7325.066","103.986","980.534","913.327"
"GENERATED VIA SPACETRACK.ORG API","JSPOC","40983","CZ-3B R/B","ROCKET BODY","U","15059B","2016-01-14 23:08:34","381248","14.58926196","0.0856809","26.8134","206.0385","281.5159","255.3234","0","999","269","0.0024991","0.99999999","0","1980393","0 CZ-3B R/B","1 40983U 15059B   16014.96428682  .99999999 -54172-5  24991-2 0  9995","2 40983  26.8134 206.0385 0856809 281.5159 255.3234 14.58926196  2693","2015-059B","40983","7074.780","98.702","1302.818","90.471"
"GENERATED VIA SPACETRACK.ORG API","JSPOC","10512","COSMOS 967","PAYLOAD","U","77116A","2016-01-14 23:09:16","641216","13.74993997","0.0028417","65.8344","147.9627","298.7674","199.6126","0","999","91231","8.5481e-06","-7.2e-07","0","1980495","0 COSMOS 967","1 10512U 77116A   16014.96477594 -.00000072  00000-0  85481-5 0  9995","2 10512  65.8344 147.9627 0028417 298.7674 199.6126 13.74993997912313","1977-116A","10512","7359.833","104.727","1002.612","960.783"
"GENERATED VIA SPACETRACK.ORG API","JSPOC","6302","SL-6 R/B(2)","ROCKET BODY","U","72072E","2016-01-14 23:11:50","224992","2.03779517","0.6749964","65.4043","210.9565","352.9097","1.0334","0","999","15511","0","-5e-06","0","1980707","0 SL-6 R/B(2)","1  6302U 72072E   16014.96655353 -.00000500 +00000-0 +00000-0 0  9999","2  6302 065.4043 210.9565 6749964 352.9097 001.0334 02.03779517155118","1972-072E","6302","26280.169","706.646","37641.053","2163.014"
